{
  "type": "FeatureCollection",
  "features": [
    {
      "type": "Feature",
      "properties": {
        "name": "Central Park",
        "popupContent": "A large green area."
      },
      "geometry": {
        "type": "Polygon",
        "coordinates": [
          [
            [-0.1, 51.5], [-0.1, 51.55], [0.0, 51.55], [0.0, 51.5], [-0.1, 51.5]
          ]
        ]
      }
    },
    {
      "type": "Feature",
      "properties": {
        "name": "Small Square",
        "popupContent": "A plaza."
      },
      "geometry": {
        "type": "Polygon",
        "coordinates": [
          [
            [0.2, 51.45], [0.2, 51.47], [0.22, 51.47], [0.22, 51.45], [0.2, 51.45]
          ]
        ]
      }
    }
  ]
}
